COSMOS 2251 DEB         
1 33929U 93036EJ  23258.75721611  .00094161  00000+0  68982-2 0  9992
2 33929  74.0144  23.7288 0008542  53.8099  71.9016 15.03013951774416
COSMOS 2251 DEB         
1 33930U 93036EK  23258.70647992  .00012129  00000+0  25963-2 0  9994
2 33930  74.0218 239.1095 0015298  86.3141  88.1760 14.58719297767293
COSMOS 2251 DEB         
1 33931U 93036EL  23258.06962403  .00017968  00000+0  23578-2 0  9997
2 33931  74.0193 116.2841 0190191  51.0596 310.7352 14.68366606770679
COSMOS 2251 DEB         
1 33932U 93036EM  23258.45255613  .00001914  00000+0  67888-3 0  9996
2 33932  74.0370  22.1288 0039731 300.7847  58.9396 14.34717601762311
COSMOS 2251 DEB         
1 33933U 93036EN  23258.65675270  .00000950  00000+0  36259-3 0  9991
2 33933  74.0883 109.5830 0075693 328.6164  31.0479 14.30586779760646
COSMOS 2251 DEB         
1 33934U 93036EP  23258.31526629  .00004265  00000+0  11293-2 0  9991
2 33934  74.0427 208.9329 0019379 177.4268 182.6995 14.48968410768292
COSMOS 2251 DEB         
1 33935U 93036EQ  23258.33950753  .00018792  00000+0  26663-2 0  9990
2 33935  74.0048 336.1139 0036445 322.9912  36.8749 14.76487200775199
COSMOS 2251 DEB         
1 33936U 93036ER  23258.39959161  .00003260  00000+0  82251-3 0  9999
2 33936  74.0225 151.9015 0032708 147.1838 213.1364 14.51160312769679
COSMOS 2251 DEB         
1 33938U 93036ET  23258.51813840  .00001570  00000+0  48969-3 0  9998
2 33938  74.0468 290.3610 0018510 221.9701 210.1766 14.41592294765737
COSMOS 2251 DEB         
1 33939U 93036EU  23258.38006549  .00010958  00000+0  26330-2 0  9991
2 33939  74.0242 236.1058 0014431 150.2059 209.9928 14.53377688766974
COSMOS 2251 DEB         
1 33940U 93036EV  23258.44963721  .00004363  00000+0  11987-2 0  9999
2 33940  74.0437 248.7690 0014729 177.9874 336.8945 14.47236817766941
COSMOS 2251 DEB         
1 33942U 93036EX  23258.61773899  .00000794  00000+0  28202-3 0  9998
2 33942  74.0397 340.9422 0022207 268.8880 205.2974 14.35923689763689
COSMOS 2251 DEB         
1 33944U 93036EZ  23258.46978128  .00001051  00000+0  35324-3 0  9995
2 33944  74.0435  12.8626 0119357 313.5245 117.2478 14.34503947762681
COSMOS 2251 DEB         
1 33945U 93036FA  23258.57677820  .00000488  00000+0  18587-3 0  9998
2 33945  74.0327   5.8815 0024153 292.2524  67.6065 14.33426179762732
COSMOS 2251 DEB         
1 33948U 93036FD  23258.71915757  .00000693  00000+0  25680-3 0  9991
2 33948  74.0386   5.9162 0024975 284.1855  75.6522 14.34000337762928
COSMOS 2251 DEB         
1 33971U 93036FE  23258.60709443  .00000976  00000+0  33732-3 0  9999
2 33971  74.0275 324.3912 0020624 267.6647 210.6217 14.37018953763619
