[{"OBJECT_NAME":"COSMOS 2251 DEB","OBJECT_ID":"1993-036EJ","EPOCH":"2023-09-15T18:10:23.471904","MEAN_MOTION":15.03013951,"ECCENTRICITY":0.0008542,"INCLINATION":74.0144,"RA_OF_ASC_NODE":23.7288,"ARG_OF_PERICENTER":53.8099,"MEAN_ANOMALY":71.9016,"EPHEMERIS_TYPE":0,"CLASSIFICATION_TYPE":"U","NORAD_CAT_ID":33929,"ELEMENT_SET_NO":999,"REV_AT_EPOCH":77441,"BSTAR":0.0068982,"MEAN_MOTION_DOT":0.00094161,"MEAN_MOTION_DDOT":0},{"OBJECT_NAME":"COSMOS 2251 DEB","OBJECT_ID":"1993-036EK","EPOCH":"2023-09-15T16:57:19.865088","MEAN_MOTION":14.58719297,"ECCENTRICITY":0.0015298,"INCLINATION":74.0218,"RA_OF_ASC_NODE":239.1095,"ARG_OF_PERICENTER":86.3141,"MEAN_ANOMALY":88.176,"EPHEMERIS_TYPE":0,"CLASSIFICATION_TYPE":"U","NORAD_CAT_ID":33930,"ELEMENT_SET_NO":999,"REV_AT_EPOCH":76729,"BSTAR":0.0025963,"MEAN_MOTION_DOT":0.00012129,"MEAN_MOTION_DDOT":0},{"OBJECT_NAME":"COSMOS 2251 DEB","OBJECT_ID":"1993-036EL","EPOCH":"2023-09-15T01:40:15.516192","MEAN_MOTION":14.68366606,"ECCENTRICITY":0.0190191,"INCLINATION":74.0193,"RA_OF_ASC_NODE":116.2841,"ARG_OF_PERICENTER":51.0596,"MEAN_ANOMALY":310.7352,"EPHEMERIS_TYPE":0,"CLASSIFICATION_TYPE":"U","NORAD_CAT_ID":33931,"ELEMENT_SET_NO":999,"REV_AT_EPOCH":77067,"BSTAR":0.0023578,"MEAN_MOTION_DOT":0.00017968,"MEAN_MOTION_DDOT":0},{"OBJECT_NAME":"COSMOS 2251 DEB","OBJECT_ID":"1993-036EM","EPOCH":"2023-09-15T10:51:40.849632","MEAN_MOTION":14.34717601,"ECCENTRICITY":0.0039731,"INCLINATION":74.037,"RA_OF_ASC_NODE":22.1288,"ARG_OF_PERICENTER":300.7847,"MEAN_ANOMALY":58.9396,"EPHEMERIS_TYPE":0,"CLASSIFICATION_TYPE":"U","NORAD_CAT_ID":33932,"ELEMENT_SET_NO":999,"REV_AT_EPOCH":76231,"BSTAR":0.00067888,"MEAN_MOTION_DOT":1.914e-5,"MEAN_MOTION_DDOT":0},{"OBJECT_NAME":"COSMOS 2251 DEB","OBJECT_ID":"1993-036EN","EPOCH":"2023-09-15T15:45:43.433280","MEAN_MOTION":14.30586779,"ECCENTRICITY":0.0075693,"INCLINATION":74.0883,"RA_OF_ASC_NODE":109.583,"ARG_OF_PERICENTER":328.6164,"MEAN_ANOMALY":31.0479,"EPHEMERIS_TYPE":0,"CLASSIFICATION_TYPE":"U","NORAD_CAT_ID":33933,"ELEMENT_SET_NO":999,"REV_AT_EPOCH":76064,"BSTAR":0.00036259,"MEAN_MOTION_DOT":9.5e-6,"MEAN_MOTION_DDOT":0},{"OBJECT_NAME":"COSMOS 2251 DEB","OBJECT_ID":"1993-036EP","EPOCH":"2023-09-15T07:33:59.007456","MEAN_MOTION":14.4896841,"ECCENTRICITY":0.0019379,"INCLINATION":74.0427,"RA_OF_ASC_NODE":208.9329,"ARG_OF_PERICENTER":177.4268,"MEAN_ANOMALY":182.6995,"EPHEMERIS_TYPE":0,"CLASSIFICATION_TYPE":"U","NORAD_CAT_ID":33934,"ELEMENT_SET_NO":999,"REV_AT_EPOCH":76829,"BSTAR":0.0011293,"MEAN_MOTION_DOT":4.265e-5,"MEAN_MOTION_DDOT":0},{"OBJECT_NAME":"COSMOS 2251 DEB","OBJECT_ID":"1993-036EQ","EPOCH":"2023-09-15T08:08:53.450592","MEAN_MOTION":14.764872,"ECCENTRICITY":0.0036445,"INCLINATION":74.0048,"RA_OF_ASC_NODE":336.1139,"ARG_OF_PERICENTER":322.9912,"MEAN_ANOMALY":36.8749,"EPHEMERIS_TYPE":0,"CLASSIFICATION_TYPE":"U","NORAD_CAT_ID":33935,"ELEMENT_SET_NO":999,"REV_AT_EPOCH":77519,"BSTAR":0.0026663,"MEAN_MOTION_DOT":0.00018792,"MEAN_MOTION_DDOT":0},{"OBJECT_NAME":"COSMOS 2251 DEB","OBJECT_ID":"1993-036ER","EPOCH":"2023-09-15T09:35:24.715104","MEAN_MOTION":14.51160312,"ECCENTRICITY":0.0032708,"INCLINATION":74.0225,"RA_OF_ASC_NODE":151.9015,"ARG_OF_PERICENTER":147.1838,"MEAN_ANOMALY":213.1364,"EPHEMERIS_TYPE":0,"CLASSIFICATION_TYPE":"U","NORAD_CAT_ID":33936,"ELEMENT_SET_NO":999,"REV_AT_EPOCH":76967,"BSTAR":0.00082251,"MEAN_MOTION_DOT":3.26e-5,"MEAN_MOTION_DDOT":0},{"OBJECT_NAME":"COSMOS 2251 DEB","OBJECT_ID":"1993-036ET","EPOCH":"2023-09-15T12:26:07.157760","MEAN_MOTION":14.41592294,"ECCENTRICITY":0.001851,"INCLINATION":74.0468,"RA_OF_ASC_NODE":290.361,"ARG_OF_PERICENTER":221.9701,"MEAN_ANOMALY":210.1766,"EPHEMERIS_TYPE":0,"CLASSIFICATION_TYPE":"U","NORAD_CAT_ID":33938,"ELEMENT_SET_NO":999,"REV_AT_EPOCH":76573,"BSTAR":0.00048969,"MEAN_MOTION_DOT":1.57e-5,"MEAN_MOTION_DDOT":0},{"OBJECT_NAME":"COSMOS 2251 DEB","OBJECT_ID":"1993-036EU","EPOCH":"2023-09-15T09:07:17.658336","MEAN_MOTION":14.53377688,"ECCENTRICITY":0.0014431,"INCLINATION":74.0242,"RA_OF_ASC_NODE":236.1058,"ARG_OF_PERICENTER":150.2059,"MEAN_ANOMALY":209.9928,"EPHEMERIS_TYPE":0,"CLASSIFICATION_TYPE":"U","NORAD_CAT_ID":33939,"ELEMENT_SET_NO":999,"REV_AT_EPOCH":76697,"BSTAR":0.002633,"MEAN_MOTION_DOT":0.00010958,"MEAN_MOTION_DDOT":0},{"OBJECT_NAME":"COSMOS 2251 DEB","OBJECT_ID":"1993-036EV","EPOCH":"2023-09-15T10:47:28.654944","MEAN_MOTION":14.47236817,"ECCENTRICITY":0.0014729,"INCLINATION":74.0437,"RA_OF_ASC_NODE":248.769,"ARG_OF_PERICENTER":177.9874,"MEAN_ANOMALY":336.8945,"EPHEMERIS_TYPE":0,"CLASSIFICATION_TYPE":"U","NORAD_CAT_ID":33940,"ELEMENT_SET_NO":999,"REV_AT_EPOCH":76694,"BSTAR":0.0011987,"MEAN_MOTION_DOT":4.363e-5,"MEAN_MOTION_DDOT":0},{"OBJECT_NAME":"COSMOS 2251 DEB","OBJECT_ID":"1993-036EX","EPOCH":"2023-09-15T14:49:32.648736","MEAN_MOTION":14.35923689,"ECCENTRICITY":0.0022207,"INCLINATION":74.0397,"RA_OF_ASC_NODE":340.9422,"ARG_OF_PERICENTER":268.888,"MEAN_ANOMALY":205.2974,"EPHEMERIS_TYPE":0,"CLASSIFICATION_TYPE":"U","NORAD_CAT_ID":33942,"ELEMENT_SET_NO":999,"REV_AT_EPOCH":76368,"BSTAR":0.00028202,"MEAN_MOTION_DOT":7.94e-6,"MEAN_MOTION_DDOT":0},{"OBJECT_NAME":"COSMOS 2251 DEB","OBJECT_ID":"1993-036EZ","EPOCH":"2023-09-15T11:16:29.102592","MEAN_MOTION":14.34503947,"ECCENTRICITY":0.0119357,"INCLINATION":74.0435,"RA_OF_ASC_NODE":12.8626,"ARG_OF_PERICENTER":313.5245,"MEAN_ANOMALY":117.2478,"EPHEMERIS_TYPE":0,"CLASSIFICATION_TYPE":"U","NORAD_CAT_ID":33944,"ELEMENT_SET_NO":999,"REV_AT_EPOCH":76268,"BSTAR":0.00035324,"MEAN_MOTION_DOT":1.051e-5,"MEAN_MOTION_DDOT":0},{"OBJECT_NAME":"COSMOS 2251 DEB","OBJECT_ID":"1993-036FA","EPOCH":"2023-09-15T13:50:33.636480","MEAN_MOTION":14.33426179,"ECCENTRICITY":0.0024153,"INCLINATION":74.0327,"RA_OF_ASC_NODE":5.8815,"ARG_OF_PERICENTER":292.2524,"MEAN_ANOMALY":67.6065,"EPHEMERIS_TYPE":0,"CLASSIFICATION_TYPE":"U","NORAD_CAT_ID":33945,"ELEMENT_SET_NO":999,"REV_AT_EPOCH":76273,"BSTAR":0.00018587,"MEAN_MOTION_DOT":4.88e-6,"MEAN_MOTION_DDOT":0},{"OBJECT_NAME":"COSMOS 2251 DEB","OBJECT_ID":"1993-036FD","EPOCH":"2023-09-15T17:15:35.214048","MEAN_MOTION":14.34000337,"ECCENTRICITY":0.0024975,"INCLINATION":74.0386,"RA_OF_ASC_NODE":5.9162,"ARG_OF_PERICENTER":284.1855,"MEAN_ANOMALY":75.6522,"EPHEMERIS_TYPE":0,"CLASSIFICATION_TYPE":"U","NORAD_CAT_ID":33948,"ELEMENT_SET_NO":999,"REV_AT_EPOCH":76292,"BSTAR":0.0002568,"MEAN_MOTION_DOT":6.93e-6,"MEAN_MOTION_DDOT":0},{"OBJECT_NAME":"COSMOS 2251 DEB","OBJECT_ID":"1993-036FE","EPOCH":"2023-09-15T14:34:12.958752","MEAN_MOTION":14.37018953,"ECCENTRICITY":0.0020624,"INCLINATION":74.0275,"RA_OF_ASC_NODE":324.3912,"ARG_OF_PERICENTER":267.6647,"MEAN_ANOMALY":210.6217,"EPHEMERIS_TYPE":0,"CLASSIFICATION_TYPE":"U","NORAD_CAT_ID":33971,"ELEMENT_SET_NO":999,"REV_AT_EPOCH":76361,"BSTAR":0.00033732,"MEAN_MOTION_DOT":9.76e-6,"MEAN_MOTION_DDOT":0}]
